[{"id": "1", "name": "Watsica and Sons", "street_address": "1930 Gaylord Circle Apt. 754", "street_address_2": "Suite 354", "city": "North Sagechester", "state": "Minnesota", "zipcode": "99455", "phone_number": "306-675-5052x52563", "website": "toy.net", "description": "incentivize 24/365 web services"}, {"id": "2", "name": "Adams Inc", "street_address": "92537 Ullrich Point", "street_address_2": "Apt. 301", "city": "Wehnerfurt", "state": "Utah", "zipcode": "04441", "phone_number": "272-504-7611x89366", "website": "gislason.biz", "description": "syndicate sticky methodologies"}, {"id": "3", "name": "Ledner, Hessel and Grady", "street_address": "209 Casper Summit", "street_address_2": "Suite 275", "city": "East Nevadahaven", "state": "Arizona", "zipcode": "75691", "phone_number": "564-533-4133x4337", "website": "smith.com", "description": "benchmark 24/365 functionalities"}, {"id": "4", "name": "Sawayn, Bergstrom and Nikolaus", "street_address": "165 Torrie Fields Suite 985", "street_address_2": "Apt. 282", "city": "O'Connermouth", "state": "Nebraska", "zipcode": "12598", "phone_number": "1-198-510-9211x9424", "website": "marquardt.info", "description": "evolve holistic paradigms"}, {"id": "5", "name": "Murray LLC", "street_address": "030 Charmaine Vista", "street_address_2": "Suite 503", "city": "Floydfurt", "state": "Virginia", "zipcode": "17481", "phone_number": "578.260.4573x7528", "website": "huelsruecker.biz", "description": "empower frictionless methodologies"}, {"id": "6", "name": "Weimann PLC", "street_address": "542 Annemarie Isle Suite 729", "street_address_2": "Apt. 686", "city": "East Vara", "state": "Michigan", "zipcode": "23496", "phone_number": "(705)168-1514", "website": "rolfson.com", "description": "morph ubiquitous channels"}, {"id": "7", "name": "Kuhlman, Auer and Robel", "street_address": "8880 Unknown Drive Apt. 344", "street_address_2": "Suite 973", "city": "Dakodashire", "state": "Michigan", "zipcode": "17130", "phone_number": "1-025-167-1380x43609", "website": "schaefer.com", "description": "engineer transparent action-items"}, {"id": "8", "name": "Wuckert Inc", "street_address": "6446 Wisozk Terrace", "street_address_2": "Suite 879", "city": "Angelatown", "state": "California", "zipcode": "45662", "phone_number": "1-294-417-6664", "website": "stokesmante.com", "description": "mesh scalable convergence"}, {"id": "9", "name": "White-Grant", "street_address": "88267 Keandre Lodge Apt. 745", "street_address_2": "Suite 247", "city": "Gutmanntown", "state": "SouthDakota", "zipcode": "03403", "phone_number": "1-352-529-8698x61714", "website": "harveyrunolfsdottir.com", "description": "exploit one-to-one markets"}, {"id": "10", "name": "Hettinger Inc", "street_address": "4202 Steuber Radial Suite 204", "street_address_2": "Apt. 434", "city": "Yasminberg", "state": "Virginia", "zipcode": "47724", "phone_number": "185-903-9721x742", "website": "macejkovic.com", "description": "drive bleeding-edge e-business"}, {"id": "11", "name": "Langosh-Walsh", "street_address": "76029 Delos Ports Suite 646", "street_address_2": "Suite 725", "city": "Reichertborough", "state": "Wyoming", "zipcode": "97266", "phone_number": "(758)450-2829", "website": "harris.biz", "description": "deploy world-class applications"}, {"id": "12", "name": "Wolf, Hauck and Adams", "street_address": "2655 Hodkiewicz Villages", "street_address_2": "Apt. 172", "city": "Port Hedy", "state": "Missouri", "zipcode": "62362", "phone_number": "(506)331-8219x42924", "website": "denesik.com", "description": "extend out-of-the-box web services"}, {"id": "13", "name": "Robel and Sons", "street_address": "33523 Dickens Vista Apt. 589", "street_address_2": "Apt. 889", "city": "North Garvin", "state": "Colorado", "zipcode": "96398", "phone_number": "1-833-748-6960x3491", "website": "sipes.info", "description": "transform impactful methodologies"}, {"id": "14", "name": "Wintheiser and Sons", "street_address": "970 Jenkins Ramp", "street_address_2": "Suite 558", "city": "East Patsy", "state": "NorthDakota", "zipcode": "74151", "phone_number": "05908994443", "website": "robelcole.biz", "description": "extend killer infrastructures"}, {"id": "15", "name": "Hudson-Gleason", "street_address": "42946 Kunde Road", "street_address_2": "Apt. 933", "city": "Treasuremouth", "state": "WestVirginia", "zipcode": "57435", "phone_number": "(214)559-5857x5267", "website": "grady.net", "description": "innovate one-to-one eyeballs"}, {"id": "16", "name": "Weimann and Sons", "street_address": "78285 Logan Union Suite 605", "street_address_2": "Apt. 087", "city": "South Daxshire", "state": "California", "zipcode": "75202", "phone_number": "101-956-7686", "website": "parisian.biz", "description": "incentivize vertical networks"}, {"id": "17", "name": "Stamm-Johnson", "street_address": "4774 Elena Meadow", "street_address_2": "Suite 721", "city": "Deidratown", "state": "Tennessee", "zipcode": "29944", "phone_number": "689.986.2788", "website": "grady.com", "description": "deliver best-of-breed ROI"}, {"id": "18", "name": "Mayer-Huel", "street_address": "842 Jaydin Orchard Apt. 893", "street_address_2": "Suite 504", "city": "Sauerland", "state": "Illinois", "zipcode": "24928", "phone_number": "276.768.7219x624", "website": "marks.org", "description": "cultivate customized niches"}, {"id": "19", "name": "Williamson and Sons", "street_address": "7627 Saundra Ville", "street_address_2": "Apt. 725", "city": "North Deboraview", "state": "Hawaii", "zipcode": "93954", "phone_number": "886.548.5089", "website": "wilkinson.com", "description": "whiteboard dot-com web-readiness"}, {"id": "20", "name": "Sanford-Hyatt", "street_address": "8631 Karin Alley Apt. 504", "street_address_2": "Suite 742", "city": "New Zoeyburgh", "state": "NewJersey", "zipcode": "50837", "phone_number": "691.263.9590", "website": "cristlemke.info", "description": "integrate B2B infrastructures"}, {"id": "21", "name": "Robel-Prohaska", "street_address": "13248 Kyara Crossing Suite 320", "street_address_2": "Apt. 244", "city": "Carenton", "state": "Pennsylvania", "zipcode": "42363", "phone_number": "534.526.3451", "website": "emard.biz", "description": "redefine cross-media e-services"}, {"id": "22", "name": "Klein, Padberg and Friesen", "street_address": "6214 Lindgren Vista Suite 417", "street_address_2": "Apt. 184", "city": "North Madeleine", "state": "Wisconsin", "zipcode": "87416", "phone_number": "286.791.6928", "website": "bernhard.info", "description": "aggregate dynamic eyeballs"}, {"id": "23", "name": "Harber Ltd", "street_address": "15672 Tana Drives", "street_address_2": "Suite 943", "city": "Walkermouth", "state": "Maine", "zipcode": "75892", "phone_number": "882.730.1113x659", "website": "lesch.com", "description": "enable visionary schemas"}, {"id": "24", "name": "Gulgowski-Legros", "street_address": "540 Fronie Centers", "street_address_2": "Suite 121", "city": "East Lucien", "state": "SouthCarolina", "zipcode": "36923", "phone_number": "761.426.3473", "website": "abbott.info", "description": "iterate frictionless metrics"}, {"id": "25", "name": "Legros, Waelchi and Keeling", "street_address": "4065 Andrae Loop Suite 548", "street_address_2": "Apt. 174", "city": "North Lavinia", "state": "NorthDakota", "zipcode": "08742", "phone_number": "1-171-212-4700x958", "website": "sanford.net", "description": "visualize dynamic architectures"}, {"id": "26", "name": "Kshlerin, Senger and Grady", "street_address": "32185 Orn Locks", "street_address_2": "Apt. 423", "city": "Burlville", "state": "Arkansas", "zipcode": "06582", "phone_number": "+24(1)9347267426", "website": "upton.info", "description": "strategize wireless deliverables"}, {"id": "27", "name": "Thiel, Walter and Yundt", "street_address": "124 Borer Island", "street_address_2": "Suite 144", "city": "New Robbin", "state": "Florida", "zipcode": "32486", "phone_number": "944-606-2442x0512", "website": "reichelprohaska.com", "description": "synergize back-end e-markets"}, {"id": "28", "name": "Shields LLC", "street_address": "9414 Valentin Trail Apt. 816", "street_address_2": "Suite 289", "city": "North Orriemouth", "state": "California", "zipcode": "74260", "phone_number": "+64(8)1534968594", "website": "bartellconroy.org", "description": "architect wireless niches"}, {"id": "29", "name": "Zulauf, Mills and Bartell", "street_address": "9470 Parisian Fort", "street_address_2": "Apt. 075", "city": "East Elma", "state": "NewJersey", "zipcode": "89210", "phone_number": "161.729.0224x647", "website": "wisoky.com", "description": "optimize distributed partnerships"}, {"id": "30", "name": "Kertzmann, Becker and Skiles", "street_address": "571 Lynwood Port", "street_address_2": "Apt. 063", "city": "North Mozelle", "state": "Michigan", "zipcode": "75605", "phone_number": "(978)694-2565x2771", "website": "corwin.com", "description": "benchmark sexy applications"}, {"id": "31", "name": "Larkin Group", "street_address": "7872 Ernser Pines", "street_address_2": "Apt. 957", "city": "Kovacekport", "state": "Mississippi", "zipcode": "60213", "phone_number": "04333200579", "website": "mertzbogisich.com", "description": "drive impactful vortals"}, {"id": "32", "name": "Lind, Sauer and Steuber", "street_address": "4362 Becker Club Apt. 529", "street_address_2": "Apt. 075", "city": "New Dandreshire", "state": "Nebraska", "zipcode": "83224", "phone_number": "610-054-9006", "website": "mantekilback.org", "description": "deploy sticky markets"}, {"id": "33", "name": "Glover-Johns", "street_address": "3409 Virgie Junctions Apt. 146", "street_address_2": "Suite 198", "city": "Schneiderborough", "state": "Connecticut", "zipcode": "80761", "phone_number": "1-769-059-3922x5183", "website": "wyman.info", "description": "monetize sexy partnerships"}, {"id": "34", "name": "Bosco-Padberg", "street_address": "926 Eller Ranch Apt. 017", "street_address_2": "Suite 602", "city": "West Kennedystad", "state": "NewJersey", "zipcode": "55328", "phone_number": "1-337-974-8049x347", "website": "baumbach.info", "description": "strategize interactive niches"}, {"id": "35", "name": "Balistreri-Romaguera", "street_address": "77465 Will Pass", "street_address_2": "Apt. 827", "city": "Considinefort", "state": "NewJersey", "zipcode": "84391", "phone_number": "144.457.2942", "website": "denesik.net", "description": "redefine turn-key models"}, {"id": "36", "name": "Sporer, Glover and Bechtelar", "street_address": "1974 Jetta Heights", "street_address_2": "Suite 031", "city": "North Alayaport", "state": "NorthDakota", "zipcode": "07772", "phone_number": "668.434.0407", "website": "bode.org", "description": "incentivize extensible niches"}, {"id": "37", "name": "Nienow Group", "street_address": "02206 Else Flats", "street_address_2": "Apt. 936", "city": "East Farris", "state": "NewHampshire", "zipcode": "86178", "phone_number": "828.662.4443x954", "website": "dicki.com", "description": "embrace dot-com ROI"}, {"id": "38", "name": "Walker PLC", "street_address": "423 Torp Heights", "street_address_2": "Suite 759", "city": "North Denitaview", "state": "Minnesota", "zipcode": "37888", "phone_number": "858.945.5285x4132", "website": "koepp.com", "description": "empower dot-com content"}, {"id": "39", "name": "Kshlerin, Ullrich and Brakus", "street_address": "49439 Ason Street Suite 430", "street_address_2": "Suite 137", "city": "Johnsonchester", "state": "NorthCarolina", "zipcode": "91584", "phone_number": "592-761-6726", "website": "durgan.com", "description": "embrace world-class eyeballs"}, {"id": "40", "name": "Senger-Gerlach", "street_address": "54274 Watsica Bypass", "street_address_2": "Apt. 139", "city": "Bergstrommouth", "state": "Alaska", "zipcode": "46280", "phone_number": "758.871.4867x010", "website": "sanford.net", "description": "facilitate clicks-and-mortar web-readiness"}, {"id": "41", "name": "Harvey LLC", "street_address": "9362 Gleichner Centers Suite 815", "street_address_2": "Apt. 193", "city": "West Braden", "state": "Missouri", "zipcode": "59703", "phone_number": "563-247-3810", "website": "farrell.biz", "description": "seize extensible web services"}, {"id": "42", "name": "Schumm-Purdy", "street_address": "4503 Kelly Shoals Apt. 893", "street_address_2": "Apt. 098", "city": "Morrisshire", "state": "Michigan", "zipcode": "31175", "phone_number": "(272)239-1951x353", "website": "harber.com", "description": "empower revolutionary experiences"}, {"id": "43", "name": "Wiegand, Moore and Waelchi", "street_address": "05287 Prosacco Islands Apt. 246", "street_address_2": "Apt. 896", "city": "North Lennie", "state": "Iowa", "zipcode": "70699", "phone_number": "(977)401-7975x122", "website": "kub.biz", "description": "repurpose 24/7 metrics"}, {"id": "44", "name": "Hilll, McGlynn and Schaefer", "street_address": "07318 Darian Highway", "street_address_2": "Apt. 971", "city": "West Tonja", "state": "Georgia", "zipcode": "53312", "phone_number": "301.546.5108", "website": "grahamrunolfsdottir.info", "description": "deliver out-of-the-box partnerships"}, {"id": "45", "name": "Kuhn-Considine", "street_address": "54891 Wilderman Loop", "street_address_2": "Suite 184", "city": "North Trace", "state": "Pennsylvania", "zipcode": "77510", "phone_number": "1-243-756-2572x376", "website": "roberts.com", "description": "e-enable granular schemas"}, {"id": "46", "name": "Sawayn LLC", "street_address": "7424 Lindgren Mountains Apt. 886", "street_address_2": "Apt. 040", "city": "Ziemefurt", "state": "Iowa", "zipcode": "58183", "phone_number": "998.936.1551x5807", "website": "spinka.com", "description": "innovate impactful interfaces"}, {"id": "47", "name": "Considine, Wintheiser and Becker", "street_address": "89673 Riley Key", "street_address_2": "Suite 023", "city": "South Reagan", "state": "Iowa", "zipcode": "62531", "phone_number": "180-558-0878x5665", "website": "swaniawskiherzog.com", "description": "brand transparent bandwidth"}, {"id": "48", "name": "Bashirian, Ondricka and Bruen", "street_address": "2645 Tolbert Crescent Apt. 279", "street_address_2": "Suite 178", "city": "Nitzschefurt", "state": "NewYork", "zipcode": "38545", "phone_number": "409-782-6633x1954", "website": "nitzsche.com", "description": "embrace B2C e-services"}, {"id": "49", "name": "Willms Ltd", "street_address": "5122 Kilback Mill Suite 282", "street_address_2": "Suite 923", "city": "Port Eligeport", "state": "NorthCarolina", "zipcode": "66892", "phone_number": "(590)551-4471x246", "website": "kerlukegottlieb.com", "description": "syndicate mission-critical channels"}, {"id": "50", "name": "Brekke-Medhurst", "street_address": "8040 Towne Pines", "street_address_2": "Apt. 988", "city": "Schroedermouth", "state": "Indiana", "zipcode": "50785", "phone_number": "09601882437", "website": "watsica.com", "description": "cultivate 24/7 systems"}, {"id": "51", "name": "Roberts-Cronin", "street_address": "572 Rosalinda Village Apt. 400", "street_address_2": "Suite 099", "city": "Ziemannburgh", "state": "NewYork", "zipcode": "23186", "phone_number": "+55(8)0075470307", "website": "robertsmurphy.net", "description": "drive turn-key applications"}, {"id": "52", "name": "Prosacco, Mills and Haag", "street_address": "02231 Purdy Ports", "street_address_2": "Apt. 696", "city": "Mozellstad", "state": "Wyoming", "zipcode": "56872", "phone_number": "+74(8)3238245290", "website": "parisian.com", "description": "envisioneer B2C ROI"}, {"id": "53", "name": "Blick-Kuhlman", "street_address": "1479 Goldner Spring", "street_address_2": "Suite 737", "city": "East Marchello", "state": "Delaware", "zipcode": "66595", "phone_number": "03424416799", "website": "leuschketromp.net", "description": "grow plug-and-play web services"}, {"id": "54", "name": "Becker-Romaguera", "street_address": "88004 Ronny Stravenue Apt. 195", "street_address_2": "Suite 605", "city": "Pollichbury", "state": "Washington", "zipcode": "41974", "phone_number": "183.473.8900", "website": "gislasonkovacek.com", "description": "repurpose back-end paradigms"}, {"id": "55", "name": "Bailey-Littel", "street_address": "1751 Sheilah Dam Suite 187", "street_address_2": "Suite 786", "city": "East Imanifort", "state": "Maryland", "zipcode": "20744", "phone_number": "1-999-600-1209", "website": "okeefe.biz", "description": "scale interactive ROI"}, {"id": "56", "name": "Jewess, Johnson and Cremin", "street_address": "466 Gibson Glen Suite 329", "street_address_2": "Suite 234", "city": "Lake Crismouth", "state": "Illinois", "zipcode": "66512", "phone_number": "(585)639-3795x216", "website": "runte.com", "description": "grow sticky solutions"}, {"id": "57", "name": "Wunsch-Senger", "street_address": "40579 Deron Manor Apt. 318", "street_address_2": "Apt. 515", "city": "West Thedaport", "state": "Georgia", "zipcode": "99496", "phone_number": "04125945742", "website": "luettgenlittle.net", "description": "optimize dot-com technologies"}, {"id": "58", "name": "Thiel Inc", "street_address": "5929 Keeling Dam", "street_address_2": "Apt. 778", "city": "South Adison", "state": "NorthDakota", "zipcode": "58843", "phone_number": "(293)693-4201x05970", "website": "jacobi.org", "description": "engineer scalable channels"}, {"id": "59", "name": "Kutch, Jerde and Windler", "street_address": "6052 Labadie Port", "street_address_2": "Suite 585", "city": "Larkinbury", "state": "RhodeIsland", "zipcode": "62947", "phone_number": "04913664522", "website": "kuhn.com", "description": "mesh value-added experiences"}, {"id": "60", "name": "Daniel-Abbott", "street_address": "45582 Kirlin Bridge Suite 571", "street_address_2": "Apt. 007", "city": "Port Sheron", "state": "NewMexico", "zipcode": "75979", "phone_number": "719-957-2214x79809", "website": "wisokyrunolfsdottir.org", "description": "evolve B2B deliverables"}, {"id": "61", "name": "Dietrich PLC", "street_address": "636 Neveah Parkways Suite 553", "street_address_2": "Suite 345", "city": "East Cullen", "state": "Pennsylvania", "zipcode": "14039", "phone_number": "829.867.0041", "website": "aufderharkuhic.com", "description": "engineer strategic networks"}, {"id": "62", "name": "Beier-Hyatt", "street_address": "12839 Hane Prairie Suite 136", "street_address_2": "Apt. 425", "city": "Holmestown", "state": "Texas", "zipcode": "03738", "phone_number": "561-097-4167x40643", "website": "thompsonlesch.net", "description": "monetize bleeding-edge ROI"}, {"id": "63", "name": "Gottlieb, Roob and Becker", "street_address": "41565 Kipp Drive Suite 545", "street_address_2": "Suite 436", "city": "Lesiachester", "state": "Iowa", "zipcode": "40376", "phone_number": "252.316.0049", "website": "gerlach.com", "description": "deploy interactive functionalities"}, {"id": "64", "name": "Kirlin Ltd", "street_address": "6189 Darrell Ranch", "street_address_2": "Apt. 544", "city": "Beierside", "state": "Arkansas", "zipcode": "95043", "phone_number": "1-034-462-6331", "website": "ricenader.info", "description": "target plug-and-play eyeballs"}, {"id": "65", "name": "Eichmann LLC", "street_address": "528 Hermann Common", "street_address_2": "Apt. 956", "city": "South Vincenzaport", "state": "Louisiana", "zipcode": "47994", "phone_number": "113-071-7760x378", "website": "orn.org", "description": "strategize proactive markets"}, {"id": "66", "name": "Russel Ltd", "street_address": "988 Elon Isle", "street_address_2": "Apt. 259", "city": "West Augustus", "state": "Massachusetts", "zipcode": "11410", "phone_number": "(458)658-9640", "website": "turner.info", "description": "transition mission-critical communities"}, {"id": "67", "name": "Jast, Zboncak and Keeling", "street_address": "21739 Torrance Islands", "street_address_2": "Apt. 992", "city": "Sharifburgh", "state": "NorthCarolina", "zipcode": "98040", "phone_number": "791.101.5482x93552", "website": "larkin.com", "description": "harness front-end channels"}, {"id": "68", "name": "Weber-Champlin", "street_address": "12788 Boyle Prairie", "street_address_2": "Suite 125", "city": "North Dionefurt", "state": "Kansas", "zipcode": "99708", "phone_number": "299-276-9109x14904", "website": "beier.biz", "description": "empower front-end systems"}, {"id": "69", "name": "Ratke, Schaden and Simonis", "street_address": "11413 Schuster Lake", "street_address_2": "Apt. 873", "city": "North Whitley", "state": "Pennsylvania", "zipcode": "26956", "phone_number": "(434)556-6318", "website": "waelchi.info", "description": "harness scalable supply-chains"}, {"id": "70", "name": "Price PLC", "street_address": "02484 Ondricka Stream Apt. 651", "street_address_2": "Suite 707", "city": "West North", "state": "WestVirginia", "zipcode": "50445", "phone_number": "375-570-3939x7290", "website": "cormier.org", "description": "productize strategic vortals"}, {"id": "71", "name": "Moen Group", "street_address": "12552 Jerde Creek", "street_address_2": "Apt. 875", "city": "Loreenshire", "state": "Georgia", "zipcode": "60616", "phone_number": "(928)980-9607x7529", "website": "bauchroberts.com", "description": "innovate scalable deliverables"}, {"id": "72", "name": "Koelpin-Stark", "street_address": "266 Lara Junction", "street_address_2": "Suite 671", "city": "North Olene", "state": "Michigan", "zipcode": "35436", "phone_number": "(532)503-1333x015", "website": "beahangorczany.com", "description": "maximize open-source communities"}, {"id": "73", "name": "Reichel Group", "street_address": "23902 Orn Forest Apt. 915", "street_address_2": "Apt. 747", "city": "Victorchester", "state": "Tennessee", "zipcode": "90707", "phone_number": "009.642.1071x759", "website": "littledonnelly.com", "description": "synergize integrated web-readiness"}, {"id": "74", "name": "Schaden Group", "street_address": "6719 Will Burgs", "street_address_2": "Apt. 180", "city": "Kertzmannside", "state": "Mississippi", "zipcode": "49641", "phone_number": "450.827.5941x29434", "website": "bashirian.info", "description": "re-contextualize enterprise relationships"}, {"id": "75", "name": "Gorczany-Dare", "street_address": "79777 Gaylord Well", "street_address_2": "Suite 733", "city": "Strackehaven", "state": "Arkansas", "zipcode": "33162", "phone_number": "732.264.1023", "website": "batz.org", "description": "incubate vertical web services"}, {"id": "76", "name": "Jewess-Ward", "street_address": "14958 Zadie Highway", "street_address_2": "Apt. 126", "city": "Port Meghann", "state": "Alabama", "zipcode": "49081", "phone_number": "+85(4)9909739571", "website": "crist.net", "description": "mesh virtual models"}, {"id": "77", "name": "Fay-Walker", "street_address": "740 Gussie Mountain", "street_address_2": "Suite 196", "city": "Feestmouth", "state": "SouthCarolina", "zipcode": "87030", "phone_number": "1-984-139-8663", "website": "hoeger.com", "description": "redefine robust deliverables"}, {"id": "78", "name": "Schroeder LLC", "street_address": "483 Glover View", "street_address_2": "Apt. 190", "city": "New Kirstieside", "state": "Florida", "zipcode": "54321", "phone_number": "448.015.5909", "website": "baumbach.com", "description": "embrace open-source initiatives"}, {"id": "79", "name": "Marks LLC", "street_address": "5919 Sipes Plaza Apt. 658", "street_address_2": "Suite 332", "city": "Barnettborough", "state": "Idaho", "zipcode": "66047", "phone_number": "(006)902-0292", "website": "yundt.com", "description": "drive wireless networks"}, {"id": "80", "name": "Shanahan-Bosco", "street_address": "522 Arthor View", "street_address_2": "Suite 880", "city": "Mychalside", "state": "Florida", "zipcode": "87581", "phone_number": "1-859-106-7697", "website": "lemke.biz", "description": "morph cutting-edge action-items"}, {"id": "81", "name": "Kuhlman, Nader and Weissnat", "street_address": "017 Abbigail Lakes", "street_address_2": "Apt. 182", "city": "West Zandertown", "state": "Missouri", "zipcode": "38313", "phone_number": "670-757-7340", "website": "buckridge.net", "description": "seize best-of-breed methodologies"}, {"id": "82", "name": "Howe, Corkery and Schneider", "street_address": "02309 Harman Crescent Suite 171", "street_address_2": "Apt. 864", "city": "Bechtelarfurt", "state": "Vermont", "zipcode": "40774", "phone_number": "1-125-758-6824", "website": "parker.info", "description": "transform sticky interfaces"}, {"id": "83", "name": "Cassin, Weimann and Waelchi", "street_address": "9254 Nona Track", "street_address_2": "Apt. 141", "city": "McCulloughtown", "state": "Washington", "zipcode": "40705", "phone_number": "1-556-204-0220x72494", "website": "prohaskajacobs.com", "description": "orchestrate vertical interfaces"}, {"id": "84", "name": "Halvorson, Lemke and Waters", "street_address": "7742 Shanika Loop", "street_address_2": "Suite 347", "city": "Romaineton", "state": "Alaska", "zipcode": "53845", "phone_number": "+55(4)7630046488", "website": "weissnat.com", "description": "expedite impactful deliverables"}, {"id": "85", "name": "Lesch-Jewess", "street_address": "60202 Monahan Track", "street_address_2": "Suite 459", "city": "Adamview", "state": "Nevada", "zipcode": "07931", "phone_number": "529-511-4877", "website": "nikolaus.com", "description": "exploit dynamic e-business"}, {"id": "86", "name": "Ankunding Inc", "street_address": "021 Hermiston Loaf Apt. 084", "street_address_2": "Suite 178", "city": "Reicherttown", "state": "Kentucky", "zipcode": "41203", "phone_number": "819-312-4535x390", "website": "brekkedonnelly.com", "description": "implement frictionless convergence"}, {"id": "87", "name": "Conroy, Steuber and Grady", "street_address": "5719 Prohaska Avenue", "street_address_2": "Suite 530", "city": "Port Harriet", "state": "Arizona", "zipcode": "13866", "phone_number": "(412)843-9922", "website": "hermiston.com", "description": "iterate cutting-edge channels"}, {"id": "88", "name": "Bradtke-Crona", "street_address": "753 Pfeffer Dale", "street_address_2": "Suite 374", "city": "West Shepherd", "state": "Georgia", "zipcode": "32268", "phone_number": "+80(9)0249064687", "website": "senger.info", "description": "embrace end-to-end portals"}, {"id": "89", "name": "Cremin-Reynolds", "street_address": "9027 Braun Knoll Apt. 180", "street_address_2": "Apt. 164", "city": "Kiehnchester", "state": "Montana", "zipcode": "73330", "phone_number": "588-043-8193x54990", "website": "simonis.org", "description": "disintermediate impactful systems"}, {"id": "90", "name": "Hamill-Larkin", "street_address": "1904 Rolfson Knoll", "street_address_2": "Suite 134", "city": "Beckershire", "state": "NorthDakota", "zipcode": "17491", "phone_number": "140-506-2844x3048", "website": "rathhahn.com", "description": "brand killer communities"}, {"id": "91", "name": "Feil and Sons", "street_address": "25556 Orn Tunnel", "street_address_2": "Apt. 113", "city": "Lowetown", "state": "Georgia", "zipcode": "08907", "phone_number": "780.938.5529", "website": "vonrueden.com", "description": "drive cross-platform metrics"}, {"id": "92", "name": "Rau, Jast and Wunsch", "street_address": "089 Christop Estate Apt. 958", "street_address_2": "Apt. 249", "city": "DuBuqueport", "state": "Kentucky", "zipcode": "51226", "phone_number": "1-809-679-6115x5114", "website": "cartwright.com", "description": "incentivize synergistic synergies"}, {"id": "93", "name": "Batz, Hoppe and Greenholt", "street_address": "09142 Wuckert Course Apt. 488", "street_address_2": "Apt. 899", "city": "New Linsey", "state": "Idaho", "zipcode": "01179", "phone_number": "1-825-577-9437x98287", "website": "kutch.net", "description": "matrix web-enabled ROI"}, {"id": "94", "name": "Gusikowski, Hartmann and Wisoky", "street_address": "4760 Ritchie Avenue", "street_address_2": "Apt. 448", "city": "West Alejandrabury", "state": "Utah", "zipcode": "94160", "phone_number": "1-611-995-2753", "website": "okeefe.net", "description": "leverage clicks-and-mortar ROI"}, {"id": "95", "name": "Kassulke PLC", "street_address": "2466 O'Connell Plaza Suite 948", "street_address_2": "Apt. 044", "city": "O'Reillyton", "state": "SouthDakota", "zipcode": "80853", "phone_number": "(296)131-7883x1872", "website": "mccullough.com", "description": "synergize plug-and-play web-readiness"}, {"id": "96", "name": "Kilback-Heaney", "street_address": "21328 Fredric Estate", "street_address_2": "Suite 780", "city": "South Mendy", "state": "Wyoming", "zipcode": "05481", "phone_number": "(951)326-6530", "website": "eichmann.net", "description": "leverage value-added schemas"}, {"id": "97", "name": "Lindgren-Brakus", "street_address": "530 Octave Vista Apt. 399", "street_address_2": "Apt. 806", "city": "Streichland", "state": "California", "zipcode": "61464", "phone_number": "1-065-149-7301", "website": "zulauf.biz", "description": "unleash efficient relationships"}, {"id": "98", "name": "Gibson LLC", "street_address": "0862 Prosacco Locks", "street_address_2": "Apt. 198", "city": "Trumanfort", "state": "Idaho", "zipcode": "46351", "phone_number": "(536)428-1585", "website": "harris.com", "description": "re-contextualize vertical e-services"}, {"id": "99", "name": "Murphy, Boehm and Koelpin", "street_address": "0250 Kling Path Apt. 993", "street_address_2": "Apt. 527", "city": "Larkinport", "state": "Massachusetts", "zipcode": "56431", "phone_number": "255-585-3897x913", "website": "beer.com", "description": "optimize seamless convergence"}, {"id": "100", "name": "Zieme-Bergnaum", "street_address": "3215 Herzog Mews", "street_address_2": "Suite 096", "city": "Lake Duke", "state": "WestVirginia", "zipcode": "77982", "phone_number": "827-784-6636x490", "website": "herzog.com", "description": "seize holistic architectures"}]